[{"OBJECT_NAME":"HULIANWANG DIGUI-123","OBJECT_ID":"2025-295E","EPOCH":"2026-03-09T19:05:57.647904","MEAN_MOTION":13.43557145,"ECCENTRICITY":2.561e-5,"INCLINATION":50.0046,"RA_OF_ASC_NODE":22.4689,"ARG_OF_PERICENTER":9.898,"MEAN_ANOMALY":350.1903,"EPHEMERIS_TYPE":0,"CLASSIFICATION_TYPE":"U","NORAD_CAT_ID":67063,"ELEMENT_SET_NO":999,"REV_AT_EPOCH":1227,"BSTAR":0.00014229865,"MEAN_MOTION_DOT":-4.7e-7,"MEAN_MOTION_DDOT":0},{"OBJECT_NAME":"OPS 4947 (TRANSIT 17)","OBJECT_ID":"1967-092A","EPOCH":"2026-03-09T21:34:02.915040","MEAN_MOTION":13.53478294,"ECCENTRICITY":0.0047373,"INCLINATION":89.2565,"RA_OF_ASC_NODE":17.7987,"ARG_OF_PERICENTER":345.3505,"MEAN_ANOMALY":72.9666,"EPHEMERIS_TYPE":0,"CLASSIFICATION_TYPE":"U","NORAD_CAT_ID":2965,"ELEMENT_SET_NO":999,"REV_AT_EPOCH":88276,"BSTAR":0.00026423544,"MEAN_MOTION_DOT":1.9e-6,"MEAN_MOTION_DDOT":0}]
